[{"OBJECT_NAME":"STARLINK-1718","OBJECT_ID":"2020-073E","EPOCH":"2026-03-10T00:00:02.999808","MEAN_MOTION":15.55425751,"ECCENTRICITY":0.00035619,"INCLINATION":53.0499,"RA_OF_ASC_NODE":226.4699,"ARG_OF_PERICENTER":280.6689,"MEAN_ANOMALY":343.8718,"EPHEMERIS_TYPE":0,"CLASSIFICATION_TYPE":"U","NORAD_CAT_ID":46674,"ELEMENT_SET_NO":999,"REV_AT_EPOCH":581,"BSTAR":0.0020079931,"MEAN_MOTION_DOT":0.00141253,"MEAN_MOTION_DDOT":0},{"OBJECT_NAME":"STARLINK-1797","OBJECT_ID":"2020-073AE","EPOCH":"2026-03-10T00:00:02.999808","MEAN_MOTION":15.54694059,"ECCENTRICITY":0.00036796,"INCLINATION":53.0441,"RA_OF_ASC_NODE":207.3106,"ARG_OF_PERICENTER":56.3273,"MEAN_ANOMALY":238.374,"EPHEMERIS_TYPE":0,"CLASSIFICATION_TYPE":"U","NORAD_CAT_ID":46698,"ELEMENT_SET_NO":999,"REV_AT_EPOCH":586,"BSTAR":0.0015545741,"MEAN_MOTION_DOT":0.0010587,"MEAN_MOTION_DDOT":0}]
